[{"OBJECT_NAME":"OCO 2","OBJECT_ID":"2014-035A","EPOCH":"2026-04-26T18:57:42.162912","MEAN_MOTION":14.57146306,"ECCENTRICITY":0.0001615,"INCLINATION":98.1989,"RA_OF_ASC_NODE":58.8763,"ARG_OF_PERICENTER":79.6635,"MEAN_ANOMALY":280.4745,"EPHEMERIS_TYPE":0,"CLASSIFICATION_TYPE":"U","NORAD_CAT_ID":40059,"ELEMENT_SET_NO":999,"REV_AT_EPOCH":62856,"BSTAR":0.00011567,"MEAN_MOTION_DOT":4.76e-6,"MEAN_MOTION_DDOT":0},{"OBJECT_NAME":"BRITE-PL2 (HEWELIUSZ)","OBJECT_ID":"2014-049B","EPOCH":"2026-04-26T19:39:11.199168","MEAN_MOTION":14.94397876,"ECCENTRICITY":0.0012692,"INCLINATION":97.9036,"RA_OF_ASC_NODE":228.4478,"ARG_OF_PERICENTER":281.0348,"MEAN_ANOMALY":78.9444,"EPHEMERIS_TYPE":0,"CLASSIFICATION_TYPE":"U","NORAD_CAT_ID":40119,"ELEMENT_SET_NO":999,"REV_AT_EPOCH":63377,"BSTAR":0.00015281,"MEAN_MOTION_DOT":1.588e-5,"MEAN_MOTION_DDOT":0},{"OBJECT_NAME":"MMS 1","OBJECT_ID":"2015-011A","EPOCH":"2026-04-26T22:00:00.999072","MEAN_MOTION":0.28339059,"ECCENTRICITY":0.8362004,"INCLINATION":71.4093,"RA_OF_ASC_NODE":349.4904,"ARG_OF_PERICENTER":166.3324,"MEAN_ANOMALY":108.3672,"EPHEMERIS_TYPE":0,"CLASSIFICATION_TYPE":"U","NORAD_CAT_ID":40482,"ELEMENT_SET_NO":999,"REV_AT_EPOCH":135,"BSTAR":0,"MEAN_MOTION_DOT":-5.73e-6,"MEAN_MOTION_DDOT":0},{"OBJECT_NAME":"MMS 2","OBJECT_ID":"2015-011B","EPOCH":"2026-04-26T20:00:01.999008","MEAN_MOTION":0.28337761,"ECCENTRICITY":0.8362674,"INCLINATION":71.4091,"RA_OF_ASC_NODE":349.4933,"ARG_OF_PERICENTER":166.3389,"MEAN_ANOMALY":99.8503,"EPHEMERIS_TYPE":0,"CLASSIFICATION_TYPE":"U","NORAD_CAT_ID":40483,"ELEMENT_SET_NO":999,"REV_AT_EPOCH":135,"BSTAR":0,"MEAN_MOTION_DOT":-5.84e-6,"MEAN_MOTION_DDOT":0},{"OBJECT_NAME":"MMS 3","OBJECT_ID":"2015-011C","EPOCH":"2026-04-26T20:00:01.999008","MEAN_MOTION":0.28336301,"ECCENTRICITY":0.8361791,"INCLINATION":71.4128,"RA_OF_ASC_NODE":349.4975,"ARG_OF_PERICENTER":166.3358,"MEAN_ANOMALY":99.8422,"EPHEMERIS_TYPE":0,"CLASSIFICATION_TYPE":"U","NORAD_CAT_ID":40484,"ELEMENT_SET_NO":999,"REV_AT_EPOCH":135,"BSTAR":0,"MEAN_MOTION_DOT":-5.84e-6,"MEAN_MOTION_DDOT":0},{"OBJECT_NAME":"MMS 4","OBJECT_ID":"2015-011D","EPOCH":"2026-04-26T20:00:01.999008","MEAN_MOTION":0.28337707,"ECCENTRICITY":0.8361459,"INCLINATION":71.4089,"RA_OF_ASC_NODE":349.4933,"ARG_OF_PERICENTER":166.3409,"MEAN_ANOMALY":99.8397,"EPHEMERIS_TYPE":0,"CLASSIFICATION_TYPE":"U","NORAD_CAT_ID":40485,"ELEMENT_SET_NO":999,"REV_AT_EPOCH":135,"BSTAR":0,"MEAN_MOTION_DOT":-5.84e-6,"MEAN_MOTION_DDOT":0},{"OBJECT_NAME":"ASTROSAT","OBJECT_ID":"2015-052A","EPOCH":"2026-04-22T07:40:32.970720","MEAN_MOTION":14.82404932,"ECCENTRICITY":0.00084052,"INCLINATION":5.9962,"RA_OF_ASC_NODE":197.455,"ARG_OF_PERICENTER":315.179,"MEAN_ANOMALY":44.7659,"EPHEMERIS_TYPE":0,"CLASSIFICATION_TYPE":"U","NORAD_CAT_ID":40930,"ELEMENT_SET_NO":999,"REV_AT_EPOCH":57152,"BSTAR":9.2059685e-5,"MEAN_MOTION_DOT":1.425e-5,"MEAN_MOTION_DDOT":0},{"OBJECT_NAME":"DAMPE","OBJECT_ID":"2015-078A","EPOCH":"2026-04-26T20:27:08.148960","MEAN_MOTION":15.30653282,"ECCENTRICITY":0.001025,"INCLINATION":97.4578,"RA_OF_ASC_NODE":122.0703,"ARG_OF_PERICENTER":257.6059,"MEAN_ANOMALY":102.4034,"EPHEMERIS_TYPE":0,"CLASSIFICATION_TYPE":"U","NORAD_CAT_ID":41173,"ELEMENT_SET_NO":999,"REV_AT_EPOCH":57669,"BSTAR":5.3463e-5,"MEAN_MOTION_DOT":1.508e-5,"MEAN_MOTION_DDOT":0},{"OBJECT_NAME":"PISAT","OBJECT_ID":"2016-059B","EPOCH":"2026-04-26T17:09:55.676736","MEAN_MOTION":14.68887831,"ECCENTRICITY":0.0029371,"INCLINATION":97.8188,"RA_OF_ASC_NODE":119.3834,"ARG_OF_PERICENTER":13.0689,"MEAN_ANOMALY":347.1271,"EPHEMERIS_TYPE":0,"CLASSIFICATION_TYPE":"U","NORAD_CAT_ID":41784,"ELEMENT_SET_NO":999,"REV_AT_EPOCH":51218,"BSTAR":0.00020753,"MEAN_MOTION_DOT":1.174e-5,"MEAN_MOTION_DDOT":0},{"OBJECT_NAME":"HXMT (HUIYAN)","OBJECT_ID":"2017-034A","EPOCH":"2026-04-26T19:38:57.812352","MEAN_MOTION":15.17999794,"ECCENTRICITY":0.0031541,"INCLINATION":43.0129,"RA_OF_ASC_NODE":108.9683,"ARG_OF_PERICENTER":181.8947,"MEAN_ANOMALY":178.1786,"EPHEMERIS_TYPE":0,"CLASSIFICATION_TYPE":"U","NORAD_CAT_ID":42758,"ELEMENT_SET_NO":999,"REV_AT_EPOCH":48985,"BSTAR":0.00021948,"MEAN_MOTION_DOT":4.359e-5,"MEAN_MOTION_DDOT":0},{"OBJECT_NAME":"FLYING LAPTOP","OBJECT_ID":"2017-042G","EPOCH":"2026-04-26T20:28:31.930176","MEAN_MOTION":15.00817692,"ECCENTRICITY":0.0018029,"INCLINATION":97.446,"RA_OF_ASC_NODE":274.4458,"ARG_OF_PERICENTER":300.3418,"MEAN_ANOMALY":59.6023,"EPHEMERIS_TYPE":0,"CLASSIFICATION_TYPE":"U","NORAD_CAT_ID":42831,"ELEMENT_SET_NO":999,"REV_AT_EPOCH":47875,"BSTAR":0.00037966,"MEAN_MOTION_DOT":4.782e-5,"MEAN_MOTION_DDOT":0},{"OBJECT_NAME":"ZHANGHENG 1-01 (CSES-1)","OBJECT_ID":"2018-015C","EPOCH":"2026-04-26T19:38:07.077408","MEAN_MOTION":15.20669461,"ECCENTRICITY":0.0017899,"INCLINATION":97.6827,"RA_OF_ASC_NODE":281.4675,"ARG_OF_PERICENTER":83.5104,"MEAN_ANOMALY":276.8168,"EPHEMERIS_TYPE":0,"CLASSIFICATION_TYPE":"U","NORAD_CAT_ID":43194,"ELEMENT_SET_NO":999,"REV_AT_EPOCH":45683,"BSTAR":0.00045718,"MEAN_MOTION_DOT":0.00010016,"MEAN_MOTION_DDOT":0},{"OBJECT_NAME":"SALSAT","OBJECT_ID":"2020-068K","EPOCH":"2026-04-26T11:00:12.410208","MEAN_MOTION":15.29015639,"ECCENTRICITY":0.00115423,"INCLINATION":97.8864,"RA_OF_ASC_NODE":116.4064,"ARG_OF_PERICENTER":119.6725,"MEAN_ANOMALY":240.5665,"EPHEMERIS_TYPE":0,"CLASSIFICATION_TYPE":"U","NORAD_CAT_ID":46495,"ELEMENT_SET_NO":999,"REV_AT_EPOCH":30745,"BSTAR":0.00034104261,"MEAN_MOTION_DOT":9.547e-5,"MEAN_MOTION_DDOT":0},{"OBJECT_NAME":"IXPE","OBJECT_ID":"2021-121A","EPOCH":"2026-04-26T20:00:01.999008","MEAN_MOTION":15.09758292,"ECCENTRICITY":0.000732,"INCLINATION":0.2303,"RA_OF_ASC_NODE":345.6999,"ARG_OF_PERICENTER":24.0645,"MEAN_ANOMALY":74.6354,"EPHEMERIS_TYPE":0,"CLASSIFICATION_TYPE":"U","NORAD_CAT_ID":49954,"ELEMENT_SET_NO":999,"REV_AT_EPOCH":567,"BSTAR":0.00079667,"MEAN_MOTION_DOT":0.00014195,"MEAN_MOTION_DDOT":0}]
